CCSDS_OMM_VERS = 2.0
CREATION_DATE  = 
ORIGINATOR     = 

OBJECT_NAME    = TWILIGHT P
OBJECT_ID      = 2026-004P
CENTER_NAME    = EARTH
REF_FRAME      = TEME
TIME_SYSTEM    = UTC
MEAN_ELEMENT_THEORY = SGP/SGP4

EPOCH          = 2026-02-01T01:26:11.048640
MEAN_MOTION    = 14.87786709
ECCENTRICITY   = .00046652
INCLINATION    = 97.7995
RA_OF_ASC_NODE = 32.8842
ARG_OF_PERICENTER = 202.6176
MEAN_ANOMALY   = 157.4836

EPHEMERIS_TYPE = 0
CLASSIFICATION_TYPE = U
NORAD_CAT_ID   = 67376
ELEMENT_SET_NO = 999
REV_AT_EPOCH   = 305
BSTAR          = .22156646E-3
MEAN_MOTION_DOT = .1969E-4
MEAN_MOTION_DDOT = 0

CCSDS_OMM_VERS = 2.0
CREATION_DATE  = 
ORIGINATOR     = 

OBJECT_NAME    = TWILIGHT Q
OBJECT_ID      = 2026-004Q
CENTER_NAME    = EARTH
REF_FRAME      = TEME
TIME_SYSTEM    = UTC
MEAN_ELEMENT_THEORY = SGP/SGP4

EPOCH          = 2026-01-30T12:15:35.151264
MEAN_MOTION    = 14.88280196
ECCENTRICITY   = .00066529
INCLINATION    = 97.7999
RA_OF_ASC_NODE = 31.3669
ARG_OF_PERICENTER = 209.0200
MEAN_ANOMALY   = 151.0648

EPHEMERIS_TYPE = 0
CLASSIFICATION_TYPE = U
NORAD_CAT_ID   = 67377
ELEMENT_SET_NO = 999
REV_AT_EPOCH   = 281
BSTAR          = .15452251E-1
MEAN_MOTION_DOT = .14578E-2
MEAN_MOTION_DDOT = 0

CCSDS_OMM_VERS = 2.0
CREATION_DATE  = 
ORIGINATOR     = 

OBJECT_NAME    = TWILIGHT R
OBJECT_ID      = 2026-004R
CENTER_NAME    = EARTH
REF_FRAME      = TEME
TIME_SYSTEM    = UTC
MEAN_ELEMENT_THEORY = SGP/SGP4

EPOCH          = 2026-02-01T06:18:12.211776
MEAN_MOTION    = 14.87719036
ECCENTRICITY   = .00040791
INCLINATION    = 97.7970
RA_OF_ASC_NODE = 33.0760
ARG_OF_PERICENTER = 210.8350
MEAN_ANOMALY   = 149.2628

EPHEMERIS_TYPE = 0
CLASSIFICATION_TYPE = U
NORAD_CAT_ID   = 67378
ELEMENT_SET_NO = 999
REV_AT_EPOCH   = 307
BSTAR          = .2358001E-3
MEAN_MOTION_DOT = .2095E-4
MEAN_MOTION_DDOT = 0

CCSDS_OMM_VERS = 2.0
CREATION_DATE  = 
ORIGINATOR     = 

OBJECT_NAME    = TWILIGHT S
OBJECT_ID      = 2026-004S
CENTER_NAME    = EARTH
REF_FRAME      = TEME
TIME_SYSTEM    = UTC
MEAN_ELEMENT_THEORY = SGP/SGP4

EPOCH          = 2026-02-01T03:04:16.298688
MEAN_MOTION    = 14.87727891
ECCENTRICITY   = .00045796
INCLINATION    = 97.7974
RA_OF_ASC_NODE = 32.9458
ARG_OF_PERICENTER = 208.0278
MEAN_ANOMALY   = 152.0692

EPHEMERIS_TYPE = 0
CLASSIFICATION_TYPE = U
NORAD_CAT_ID   = 67379
ELEMENT_SET_NO = 999
REV_AT_EPOCH   = 305
BSTAR          = .2445773E-3
MEAN_MOTION_DOT = .2176E-4
MEAN_MOTION_DDOT = 0

CCSDS_OMM_VERS = 2.0
CREATION_DATE  = 
ORIGINATOR     = 

OBJECT_NAME    = TWILIGHT T
OBJECT_ID      = 2026-004T
CENTER_NAME    = EARTH
REF_FRAME      = TEME
TIME_SYSTEM    = UTC
MEAN_ELEMENT_THEORY = SGP/SGP4

EPOCH          = 2026-02-01T01:25:37.838208
MEAN_MOTION    = 14.87828184
ECCENTRICITY   = .00040899
INCLINATION    = 97.7966
RA_OF_ASC_NODE = 32.8797
ARG_OF_PERICENTER = 206.9278
MEAN_ANOMALY   = 153.1726

EPHEMERIS_TYPE = 0
CLASSIFICATION_TYPE = U
NORAD_CAT_ID   = 67380
ELEMENT_SET_NO = 999
REV_AT_EPOCH   = 304
BSTAR          = .25896928E-3
MEAN_MOTION_DOT = .2313E-4
MEAN_MOTION_DDOT = 0

CCSDS_OMM_VERS = 2.0
CREATION_DATE  = 
ORIGINATOR     = 

OBJECT_NAME    = TWILIGHT U
OBJECT_ID      = 2026-004U
CENTER_NAME    = EARTH
REF_FRAME      = TEME
TIME_SYSTEM    = UTC
MEAN_ELEMENT_THEORY = SGP/SGP4

EPOCH          = 2026-01-29T02:22:17.175360
MEAN_MOTION    = 14.87635069
ECCENTRICITY   = .00020921
INCLINATION    = 97.8008
RA_OF_ASC_NODE = 29.9801
ARG_OF_PERICENTER = 273.6119
MEAN_ANOMALY   = 86.4858

EPHEMERIS_TYPE = 0
CLASSIFICATION_TYPE = U
NORAD_CAT_ID   = 67381
ELEMENT_SET_NO = 999
REV_AT_EPOCH   = 260
BSTAR          = -.12140991E-1
MEAN_MOTION_DOT = -.108713E-2
MEAN_MOTION_DDOT = 0

CCSDS_OMM_VERS = 2.0
CREATION_DATE  = 
ORIGINATOR     = 

OBJECT_NAME    = TWILIGHT V
OBJECT_ID      = 2026-004V
CENTER_NAME    = EARTH
REF_FRAME      = TEME
TIME_SYSTEM    = UTC
MEAN_ELEMENT_THEORY = SGP/SGP4

EPOCH          = 2026-02-01T01:21:43.611264
MEAN_MOTION    = 14.88012822
ECCENTRICITY   = .00040759
INCLINATION    = 97.7994
RA_OF_ASC_NODE = 32.8881
ARG_OF_PERICENTER = 191.6565
MEAN_ANOMALY   = 168.4558

EPHEMERIS_TYPE = 0
CLASSIFICATION_TYPE = U
NORAD_CAT_ID   = 67382
ELEMENT_SET_NO = 999
REV_AT_EPOCH   = 304
BSTAR          = .21445897E-3
MEAN_MOTION_DOT = .1915E-4
MEAN_MOTION_DDOT = 0

CCSDS_OMM_VERS = 2.0
CREATION_DATE  = 
ORIGINATOR     = 

OBJECT_NAME    = TWILIGHT W
OBJECT_ID      = 2026-004W
CENTER_NAME    = EARTH
REF_FRAME      = TEME
TIME_SYSTEM    = UTC
MEAN_ELEMENT_THEORY = SGP/SGP4

EPOCH          = 2026-02-01T01:27:08.705952
MEAN_MOTION    = 14.87745421
ECCENTRICITY   = .00043946
INCLINATION    = 97.7970
RA_OF_ASC_NODE = 32.8792
ARG_OF_PERICENTER = 209.2906
MEAN_ANOMALY   = 150.8065

EPHEMERIS_TYPE = 0
CLASSIFICATION_TYPE = U
NORAD_CAT_ID   = 67383
ELEMENT_SET_NO = 999
REV_AT_EPOCH   = 304
BSTAR          = .26195622E-3
MEAN_MOTION_DOT = .2335E-4
MEAN_MOTION_DDOT = 0

CCSDS_OMM_VERS = 2.0
CREATION_DATE  = 
ORIGINATOR     = 

OBJECT_NAME    = TWILIGHT X
OBJECT_ID      = 2026-004X
CENTER_NAME    = EARTH
REF_FRAME      = TEME
TIME_SYSTEM    = UTC
MEAN_ELEMENT_THEORY = SGP/SGP4

EPOCH          = 2026-02-01T06:09:37.539936
MEAN_MOTION    = 14.88254025
ECCENTRICITY   = .00035275
INCLINATION    = 97.7967
RA_OF_ASC_NODE = 33.0847
ARG_OF_PERICENTER = 191.0630
MEAN_ANOMALY   = 169.0510

EPHEMERIS_TYPE = 0
CLASSIFICATION_TYPE = U
NORAD_CAT_ID   = 67384
ELEMENT_SET_NO = 999
REV_AT_EPOCH   = 307
BSTAR          = .3171224E-3
MEAN_MOTION_DOT = .2875E-4
MEAN_MOTION_DDOT = 0

CCSDS_OMM_VERS = 2.0
CREATION_DATE  = 
ORIGINATOR     = 

OBJECT_NAME    = TWILIGHT Y
OBJECT_ID      = 2026-004Y
CENTER_NAME    = EARTH
REF_FRAME      = TEME
TIME_SYSTEM    = UTC
MEAN_ELEMENT_THEORY = SGP/SGP4

EPOCH          = 2026-02-01T01:17:30.447168
MEAN_MOTION    = 14.88347425
ECCENTRICITY   = .00034871
INCLINATION    = 97.7978
RA_OF_ASC_NODE = 32.8897
ARG_OF_PERICENTER = 185.2243
MEAN_ANOMALY   = 174.8938

EPHEMERIS_TYPE = 0
CLASSIFICATION_TYPE = U
NORAD_CAT_ID   = 67385
ELEMENT_SET_NO = 999
REV_AT_EPOCH   = 304
BSTAR          = .56811409E-3
MEAN_MOTION_DOT = .5207E-4
MEAN_MOTION_DDOT = 0

CCSDS_OMM_VERS = 2.0
CREATION_DATE  = 
ORIGINATOR     = 

OBJECT_NAME    = TWILIGHT Z
OBJECT_ID      = 2026-004Z
CENTER_NAME    = EARTH
REF_FRAME      = TEME
TIME_SYSTEM    = UTC
MEAN_ELEMENT_THEORY = SGP/SGP4

EPOCH          = 2026-02-01T06:05:55.015872
MEAN_MOTION    = 14.88330229
ECCENTRICITY   = .00023013
INCLINATION    = 97.7962
RA_OF_ASC_NODE = 33.0877
ARG_OF_PERICENTER = 181.3547
MEAN_ANOMALY   = 178.7664

EPHEMERIS_TYPE = 0
CLASSIFICATION_TYPE = U
NORAD_CAT_ID   = 67386
ELEMENT_SET_NO = 999
REV_AT_EPOCH   = 307
BSTAR          = .22480906E-3
MEAN_MOTION_DOT = .2026E-4
MEAN_MOTION_DDOT = 0

CCSDS_OMM_VERS = 2.0
CREATION_DATE  = 
ORIGINATOR     = 

OBJECT_NAME    = TWILIGHT AA
OBJECT_ID      = 2026-004AA
CENTER_NAME    = EARTH
REF_FRAME      = TEME
TIME_SYSTEM    = UTC
MEAN_ELEMENT_THEORY = SGP/SGP4

EPOCH          = 2026-02-01T01:10:26.240448
MEAN_MOTION    = 14.88658536
ECCENTRICITY   = .00034793
INCLINATION    = 97.8010
RA_OF_ASC_NODE = 32.8995
ARG_OF_PERICENTER = 153.3564
MEAN_ANOMALY   = 206.7832

EPHEMERIS_TYPE = 0
CLASSIFICATION_TYPE = U
NORAD_CAT_ID   = 67387
ELEMENT_SET_NO = 999
REV_AT_EPOCH   = 304
BSTAR          = .49998584E-3
MEAN_MOTION_DOT = .4611E-4
MEAN_MOTION_DDOT = 0

