TWILIGHT P              
1 67376U 26004P   26032.05985010  .00001969  00000+0  22157-3 0  9996
2 67376  97.7995  32.8842 0004665 202.6176 157.4836 14.87786709  3058
TWILIGHT Q              
1 67377U 26004Q   26030.51082351  .00145780  00000+0  15452-1 0  9990
2 67377  97.7999  31.3669 0006652 209.0200 151.0648 14.88280196  2815
TWILIGHT R              
1 67378U 26004R   26032.26264134  .00002095  00000+0  23580-3 0  9990
2 67378  97.7970  33.0760 0004079 210.8350 149.2628 14.87719036  3078
TWILIGHT S              
1 67379U 26004S   26032.12796642  .00002176  00000+0  24458-3 0  9995
2 67379  97.7974  32.9458 0004579 208.0278 152.0692 14.87727891  3057
TWILIGHT T              
1 67380U 26004T   26032.05946572  .00002313  00000+0  25897-3 0  9999
2 67380  97.7966  32.8797 0004089 206.9278 153.1726 14.87828184  3044
TWILIGHT U              
1 67381U 26004U   26029.09880990 -.00108713  00000+0 -12141-1 0  9990
2 67381  97.8008  29.9801 0002092 273.6119  86.4858 14.87635069  2606
TWILIGHT V              
1 67382U 26004V   26032.05675476  .00001915  00000+0  21446-3 0  9996
2 67382  97.7994  32.8881 0004075 191.6565 168.4558 14.88012822  3042
TWILIGHT W              
1 67383U 26004W   26032.06051743  .00002335  00000+0  26196-3 0  9997
2 67383  97.7970  32.8792 0004394 209.2906 150.8065 14.87745421  3042
TWILIGHT X              
1 67384U 26004X   26032.25668449  .00002875  00000+0  31712-3 0  9995
2 67384  97.7967  33.0847 0003527 191.0630 169.0510 14.88254025  3078
TWILIGHT Y              
1 67385U 26004Y   26032.05382462  .00005207  00000+0  56811-3 0  9991
2 67385  97.7978  32.8897 0003487 185.2243 174.8938 14.88347425  3045
TWILIGHT Z              
1 67386U 26004Z   26032.25410898  .00002026  00000+0  22481-3 0  9991
2 67386  97.7962  33.0877 0002301 181.3547 178.7664 14.88330229  3074
TWILIGHT AA             
1 67387U 26004AA  26032.04891482  .00004611  00000+0  49999-3 0  9996
2 67387  97.8010  32.8995 0003479 153.3564 206.7832 14.88658536  3043
